NORAD_CAT_ID,OBJECT_NAME,OBJECT_TYPE,EPOCH,MEAN_MOTION,ECCENTRICITY,INCLINATION,RA_OF_ASC_NODE,ARG_OF_PERICENTER,MEAN_ANOMALY,BSTAR,MEAN_MOTION_DOT,MEAN_MOTION_DDOT,TLE_LINE0,TLE_LINE1,TLE_LINE2,SEMIMAJOR_AXIS,PERIOD,APOGEE,PERIGEE,DECAYED
53919.0,STARLINK-5023,PAYLOAD,2024-08-02 19:53:58,15.08826359,0.0001452,53.2164,55.0382,78.1634,281.9521,-4.6583e-05,-1.029e-05,0.0,0 STARLINK-5023,1 53919U 22119AK  24215.82915262 -.00001029  00000-0 -46583-4 0  9995,2 53919  53.2164  55.0382 0001452  78.1634 281.9521 15.08826359103261,6917.922,95.438,540.792,538.783,0.0
53919.0,STARLINK-5023,PAYLOAD,2024-08-02 23:04:44,15.08831523,0.0001407,53.2175,54.4395,100.8962,259.2188,-8.9964e-06,-4.31e-06,0.0,0 STARLINK-5023,1 53919U 22119AK  24215.96162797 -.00000431  00000-0 -89964-5 0  9994,2 53919  53.2175  54.4395 0001407 100.8962 259.2188 15.08831523103285,6917.906,95.438,540.745,538.798,0.0
53919.0,STARLINK-5023,PAYLOAD,2024-08-03 19:44:43,15.08853078,0.0001262,53.2173,50.5756,93.2606,266.853,0.00015862,2.238e-05,0.0,0 STARLINK-5023,1 53919U 22119AK  24216.82273144  .00002238  00000-0  15862-3 0  9998,2 53919  53.2173  50.5756 0001262  93.2606 266.8530 15.08853078103419,6917.84,95.437,540.578,538.832,0.0
53919.0,STARLINK-5023,PAYLOAD,2024-08-03 22:55:29,15.08868713,0.0001717,53.2168,49.9798,107.0089,253.1092,2.5139e-05,1.12e-06,0.0,0 STARLINK-5023,1 53919U 22119AK  24216.95520471  .00000112  00000-0  25139-4 0  9998,2 53919  53.2168  49.9798 0001717 107.0089 253.1092 15.08868713103431,6917.793,95.436,540.845,538.47,0.0
53919.0,STARLINK-5023,PAYLOAD,2024-08-04 13:13:59,15.08841369,0.0001515,53.2163,47.2969,100.4297,259.6866,0.00027744,4.13e-05,0.0,0 STARLINK-5023,1 53919U 22119AK  24217.55138079  .00004130  00000-0  27744-3 0  9991,2 53919  53.2163  47.2969 0001515 100.4297 259.6866 15.08841369103529,6917.876,95.437,540.789,538.693,0.0
53919.0,STARLINK-5023,PAYLOAD,2024-08-04 19:35:31,15.08862122,0.0001373,53.2159,46.1149,92.8085,267.3064,0.00056201,8.673e-05,0.0,0 STARLINK-5023,1 53919U 22119AK  24217.81633424  .00008673  00000-0  56201-3 0  9990,2 53919  53.2159  46.1149 0001373  92.8085 267.3064 15.08862122103563,6917.813,95.436,540.628,538.728,0.0
53919.0,STARLINK-5023,PAYLOAD,2024-08-05 19:26:18,15.08842913,0.0001355,53.216,41.6532,89.0971,271.0176,0.00027386,4.074e-05,0.0,0 STARLINK-5023,1 53919U 22119AK  24218.80993599  .00004074  00000-0  27386-3 0  9995,2 53919  53.2160  41.6532 0001355  89.0971 271.0176 15.08842913103712,6917.871,95.437,540.674,538.799,0.0
53919.0,STARLINK-5023,PAYLOAD,2024-08-06 04:58:37,15.08831516,0.0001567,53.2165,39.8686,87.5813,272.5358,0.0001043,1.372e-05,0.0,0 STARLINK-5023,1 53919U 22119AK  24219.20738033  .00001372  00000-0  10430-3 0  9990,2 53919  53.2165  39.8686 0001567  87.5813 272.5358 15.08831516103770,6917.906,95.438,540.855,538.687,0.0
53919.0,STARLINK-5023,PAYLOAD,2024-08-06 22:27:52,15.0883509,0.0001752,53.2171,36.5968,84.6216,275.4976,0.0001861,2.675e-05,0.0,0 STARLINK-5023,1 53919U 22119AK  24219.93602493  .00002675  00000-0  18610-3 0  9995,2 53919  53.2171  36.5968 0001752  84.6216 275.4976 15.08835090104304,6917.895,95.438,540.972,538.548,0.0
53919.0,STARLINK-5023,PAYLOAD,2024-08-07 11:10:57,15.08835655,0.0001686,53.2155,34.2181,78.949,281.1692,0.00026208,3.885e-05,0.0,0 STARLINK-5023,1 53919U 22119AK  24220.46594891  .00003885  00000-0  26208-3 0  9993,2 53919  53.2155  34.2181 0001686  78.9490 281.1692 15.08835655103961,6917.894,95.438,540.925,538.592,0.0
53919.0,STARLINK-5023,PAYLOAD,2024-08-07 17:32:30,15.08841726,0.0001414,53.2155,33.0304,99.8897,260.2255,0.00028566,4.261e-05,0.0,0 STARLINK-5023,1 53919U 22119AK  24220.73090523  .00004261  00000-0  28566-3 0  9994,2 53919  53.2155  33.0304 0001414  99.8897 260.2255 15.08841726104428,6917.875,95.437,540.718,538.762,0.0
53919.0,STARLINK-5023,PAYLOAD,2024-08-08 11:01:44,15.08844184,0.0001451,53.216,29.7597,95.1819,264.9338,0.00029578,4.423e-05,0.0,0 STARLINK-5023,1 53919U 22119AK  24221.45954660  .00004423  00000-0  29578-3 0  9999,2 53919  53.2160  29.7597 0001451  95.1819 264.9338 15.08844184104530,6917.868,95.437,540.736,538.729,0.0
53919.0,STARLINK-5023,PAYLOAD,2024-08-08 17:23:17,15.08849863,0.0001469,53.2156,28.5724,73.274,286.8413,0.00031288,4.696e-05,0.0,0 STARLINK-5023,1 53919U 22119AK  24221.72450528  .00004696  00000-0  31288-3 0  9996,2 53919  53.2156  28.5724 0001469  73.2740 286.8413 15.08849863104157,6917.85,95.437,540.731,538.699,0.0
53919.0,STARLINK-5023,PAYLOAD,2024-08-09 10:52:31,15.08847767,0.0001714,53.2173,25.3026,81.9721,278.1466,0.00023367,3.434e-05,0.0,0 STARLINK-5023,1 53919U 22119AK  24222.45314552  .00003434  00000-0  23367-3 0  9991,2 53919  53.2173  25.3026 0001714  81.9721 278.1466 15.08847767104269,6917.857,95.437,540.907,538.536,0.0
53919.0,STARLINK-5023,PAYLOAD,2024-08-09 20:24:49,15.08859951,0.0001407,53.2168,23.5134,105.1563,254.9585,0.0004153,6.331e-05,0.0,0 STARLINK-5023,1 53919U 22119AK  24222.85057627  .00006331  00000-0  41530-3 0  9993,2 53919  53.2168  23.5134 0001407 105.1563 254.9585 15.08859951104740,6917.819,95.436,540.658,538.711,0.0
53919.0,STARLINK-5023,PAYLOAD,2024-08-10 10:43:18,15.08850277,0.0001731,53.2173,20.8407,84.6722,275.4467,0.00018073,2.59e-05,0.0,0 STARLINK-5023,1 53919U 22119AK  24223.44673848  .00002590  00000-0  18073-3 0  9997,2 53919  53.2173  20.8407 0001731  84.6722 275.4467 15.08850277104410,6917.849,95.437,540.911,538.516,0.0
53919.0,STARLINK-5023,PAYLOAD,2024-08-10 17:04:50,15.08859817,0.0001775,53.2172,19.6547,62.609,297.5082,0.00032926,4.959e-05,0.0,0 STARLINK-5023,1 53919U 22119AK  24223.71169364  .00004959  00000-0  32926-3 0  9994,2 53919  53.2172  19.6547 0001775  62.6090 297.5082 15.08859817104879,6917.82,95.436,540.913,538.457,0.0
53919.0,STARLINK-5023,PAYLOAD,2024-08-11 16:55:37,15.08842812,0.0001301,53.2155,15.1895,93.9381,266.176,0.00010325,1.356e-05,0.0,0 STARLINK-5023,1 53919U 22119AK  24224.70529894  .00001356  00000-0  10325-3 0  9999,2 53919  53.2155  15.1895 0001301  93.9381 266.1760 15.08842812104605,6917.872,95.437,540.637,538.837,0.0
53919.0,STARLINK-5023,PAYLOAD,2024-08-12 10:24:52,15.08835432,0.0001349,53.216,11.9196,92.7169,267.3977,3.1034e-06,-2.39e-06,0.0,0 STARLINK-5023,1 53919U 22119AK  24225.43394306 -.00000239  00000-0  31034-5 0  9990,2 53919  53.2160  11.9196 0001349  92.7169 267.3977 15.08835432104717,6917.894,95.438,540.693,538.826,0.0
53919.0,STARLINK-5023,PAYLOAD,2024-08-12 16:46:23,15.08872281,6.9e-05,53.2168,10.728,65.335,294.7714,0.00070037,0.00010886,0.0,0 STARLINK-5023,1 53919U 22119AK  24225.69888635  .00010886  00000-0  70037-3 0  9993,2 53919  53.2168  10.7280 0000690  65.3350 294.7714 15.08872281104752,6917.782,95.436,540.124,539.169,0.0
53919.0,STARLINK-5023,PAYLOAD,2024-08-13 10:15:40,15.0880435,0.000141,53.2165,7.4591,94.7471,265.3682,-0.00085439,-0.00013846,0.0,0 STARLINK-5023,1 53919U 22119AK  24226.42754634 -.00013846  00000-0 -85439-3 0  9999,2 53919  53.2165   7.4591 0001410  94.7471 265.3682 15.08804350104860,6917.989,95.44,540.83,538.879,0.0
53919.0,STARLINK-5023,PAYLOAD,2024-08-13 18:12:36,15.08811476,0.0001324,53.2142,5.9704,93.2831,266.8312,-0.00054278,-8.909e-05,0.0,0 STARLINK-5023,1 53919U 22119AK  24226.75875052 -.00008909  00000-0 -54278-3 0  9994,2 53919  53.2142   5.9704 0001324  93.2831 266.8312 15.08811476104911,6917.968,95.439,540.749,538.917,0.0
53919.0,STARLINK-5023,PAYLOAD,2024-08-14 08:31:04,15.08824596,8.31e-05,53.2187,3.2955,86.4074,273.7013,-0.0002044,-3.538e-05,0.0,0 STARLINK-5023,1 53919U 22119AK  24227.35491274 -.00003538  00000-0 -20440-3 0  9998,2 53919  53.2187   3.2955 0000831  86.4074 273.7013 15.08824596105007,6917.927,95.439,540.367,539.218,0.0
53919.0,STARLINK-5023,PAYLOAD,2024-08-14 14:52:37,15.08837722,0.0001534,53.2175,2.1068,97.8696,262.2471,0.0012721,0.00020014,0.0,0 STARLINK-5023,1 53919U 22119AK  24227.61987896  .00020014  00000-0  12721-2 0  9995,2 53919  53.2175   2.1068 0001534  97.8696 262.2471 15.08837722105460,6917.887,95.438,540.814,538.691,0.0
53919.0,STARLINK-5023,PAYLOAD,2024-08-14 16:28:00,15.08850778,0.0001418,53.217,1.8095,89.8215,270.294,0.0015602,0.00024637,0.0,0 STARLINK-5023,1 53919U 22119AK  24227.68611774  .00024637  00000-0  15602-2 0  9997,2 53919  53.2170   1.8095 0001418  89.8215 270.2940 15.08850778105051,6917.847,95.437,540.693,538.731,0.0
53919.0,STARLINK-5023,PAYLOAD,2024-08-16 01:51:06,15.08873896,0.0001557,53.2161,355.5639,75.9776,284.1389,0.0016322,0.00025808,0.0,0 STARLINK-5023,1 53919U 22119AK  24229.07715895  .00025808  00000-0  16322-2 0  9992,2 53919  53.2161 355.5639 0001557  75.9776 284.1389 15.08873896105266,6917.777,95.435,540.719,538.565,0.0
53919.0,STARLINK-5023,PAYLOAD,2024-08-17 08:03:26,15.08855515,0.0001126,53.2167,349.9145,79.669,280.4429,0.0012736,0.00020048,0.0,0 STARLINK-5023,1 53919U 22119AK  24230.33572357  .00020048  00000-0  12736-2 0  9993,2 53919  53.2167 349.9145 0001126  79.6690 280.4429 15.08855515105452,6917.833,95.437,540.477,538.919,0.0
53919.0,STARLINK-5023,PAYLOAD,2024-08-17 17:35:45,15.08852503,0.0001118,53.2176,348.1299,76.6476,283.4641,0.00079363,0.0001237,0.0,0 STARLINK-5023,1 53919U 22119AK  24230.73316133  .00012370  00000-0  79363-3 0  9994,2 53919  53.2176 348.1299 0001118  76.6476 283.4641 15.08852503105513,6917.842,95.437,540.481,538.934,0.0
53919.0,STARLINK-5023,PAYLOAD,2024-08-18 12:40:22,15.08853786,0.0001619,53.2178,344.5654,90.8158,269.3019,0.00038483,5.844e-05,0.0,0 STARLINK-5023,1 53919U 22119AK  24231.52803701  .00005844  00000-0  38483-3 0  9990,2 53919  53.2178 344.5654 0001619  90.8158 269.3019 15.08853786105630,6917.838,95.437,540.823,538.583,0.0
53919.0,STARLINK-5023,PAYLOAD,2024-08-19 10:55:45,15.08852016,0.0001426,53.2169,340.4008,82.4481,277.6673,0.00024896,3.678e-05,0.0,0 STARLINK-5023,1 53919U 22119AK  24232.45539350  .00003678  00000-0  24896-3 0  9995,2 53919  53.2169 340.4008 0001426  82.4481 277.6673 15.08852016105778,6917.844,95.437,540.695,538.722,0.0
